{
  "norad_id": 59867,
  "name": "STARLINK-31952",
  "history": [
    {
      "epoch": "2026-03-28T15:30:14.865696Z",
      "apogee_km": 483.65053683778206,
      "perigee_km": 482.4265031250179,
      "latitude_deg": -1.9058956002900924e-07,
      "longitude_deg": 112.45319160201188,
      "height_km": 482.6328645181961,
      "semi_major_axis_km": 6861.1755199814,
      "eccentricity": 8.92e-05,
      "inclination_deg": 43.0018,
      "raan_deg": 171.0786,
      "arg_perigee_deg": 287.3108,
      "mean_anomaly_deg": 72.7646,
      "mean_motion_rev_day": 15.27583532
    }
  ]
}