{"fetched_at":"2026-03-29T16:36:15Z","count":15609,"tles":[{"name":"STARLINK-31952","line1":"1 59867U 24098K   26087.64600539 -.00000334  00000+0 -26160-5 0  9995","line2":"2 59867  43.0018 171.0786 0000892 287.3108  72.7646 15.27583532104740","category":"Starlink"}]}